ORBCOMM FM24 [-]        
1 25478U 98053D   23228.32164745  .00001183  00000+0  46483-3 0  9990
2 25478  45.0074 200.1197 0001202 305.8474  54.2261 14.34539516301289
ORBCOMM FM25 [-]        
1 25479U 98053E   23229.32961257  .00001261  00000+0  49242-3 0  9998
2 25479  45.0070 193.6002 0001534 151.4363 208.6568 14.34532429301446
ORBCOMM FM26 [-]        
1 25480U 98053F   23229.31794772  .00001101  00000+0  43959-3 0  9997
2 25480  45.0063 186.8198 0004065 174.1364 185.9531 14.34141266301492
ORBCOMM FM27 [+]        
1 25481U 98053G   23228.33814532  .00001217  00000+0  47735-3 0  9990
2 25481  45.0049 198.5240 0002728 296.9727  63.0841 14.34496241301277
ORBCOMM FM28 [-]        
1 25482U 98053H   23229.17947932  .00001247  00000+0  48287-3 0  9991
2 25482  45.0064 133.9978 0002458 195.5135 164.5637 14.35017429302182
ORBCOMM FM30 [-]        
1 25980U 99065A   23229.37432069  .00001086  00000+0  43333-3 0  9998
2 25980  45.0340  11.8139 0006463 250.4062 109.6088 14.34265113238727
ORBCOMM FM31 [-]        
1 25981U 99065B   23229.06488267  .00001008  00000+0  40548-3 0  9995
2 25981  45.0253   7.1937 0003406 262.8421  97.2039 14.34302493238670
ORBCOMM FM32 [+]        
1 25982U 99065C   23228.71219264  .00000977  00000+0  40258-3 0  9998
2 25982  45.0182  20.6790 0005292 273.0164  87.0077 14.33249281238440
